UMBRA-07                
1 58297U 23174AT  26199.72727662  .00003844  00000+0  24266-3 0  9995
2 58297  97.3769 254.3040 0001897   6.5862 353.5392 15.09651846148170
TIANMU-1 14             
1 58648U 23205D   26199.88849348  .00002792  00000+0  10758-3 0  9995
2 58648  97.3396 220.1370 0006806 205.1765 154.9143 15.27153690142341
TIANMU-1 19             
1 58660U 23208A   26199.83869287  .00004412  00000+0  14531-3 0  9995
2 58660  97.4529 316.3144 0004969 185.0539 175.0653 15.32008618142170
TIANMU-1 20             
1 58661U 23208B   26199.85194431  .00004356  00000+0  13825-3 0  9992
2 58661  97.4471 316.9961 0006695 198.2341 161.8662 15.33197756142272
TIANMU-1 21             
1 58662U 23208C   26199.85692538  .00005332  00000+0  15641-3 0  9997
2 58662  97.4532 319.8210 0007056 190.9662 169.1429 15.35592148142422
TIANMU-1 22             
1 58663U 23208D   26199.83152814  .00003860  00000+0  12968-3 0  9997
2 58663  97.4525 316.2157 0003097 202.7396 157.3709 15.31456716142171
TIANMU-1 15             
1 58700U 24004A   26199.81711480  .00002725  00000+0  10585-3 0  9994
2 58700  97.4673  26.0080 0006348 213.6041 146.4796 15.26934779140603
TIANMU-1 16             
1 58701U 24004B   26199.87186399  .00002734  00000+0  10585-3 0  9996
2 58701  97.4622  25.2775 0004667 228.8693 131.2143 15.27038746140612
TIANMU-1 17             
1 58702U 24004C   26199.85735159  .00002625  00000+0  10177-3 0  9995
2 58702  97.4649  25.7594 0004099 234.4102 125.6755 15.27035837140606
TIANMU-1 18             
1 58703U 24004D   26199.83364416  .00002655  00000+0  10318-3 0  9998
2 58703  97.4666  25.9987 0004079 208.7317 151.3697 15.26950445140605
